ONEWEB-0572             
1 55151U 23004M   26192.51517056  .00000023  00000+0  26415-4 0  9992
2 55151  87.9138   1.0251 0002005  92.2805 267.8556 13.17650860170685
ONEWEB-0573             
1 55152U 23004N   26192.85070018 -.00000016  00000+0 -73627-4 0  9993
2 55152  87.9186 330.5629 0002796  98.3824 261.7625 13.18687484172947
ONEWEB-0588             
1 55153U 23004P   26192.84397250 -.00000028  00000+0 -10348-3 0  9996
2 55153  87.9184 330.5641 0002238  86.0608 274.0780 13.18686445172940
ONEWEB-0598             
1 55154U 23004Q   26192.49894076  .00000633  00000+0  17499-2 0  9999
2 55154  87.8870  16.2267 0002479 101.6408 258.4998 13.11417058169086
ONEWEB-0599             
1 55155U 23004R   26192.85602962 -.00000033  00000+0 -11811-3 0  9990
2 55155  87.9135   0.9554 0001765  97.8839 262.2493 13.17650337170734
ONEWEB-0614             
1 55156U 23004S   26192.95163100  .00000415  00000+0  11349-2 0  9995
2 55156  87.8878  16.1452 0001812  81.8889 278.2444 13.11417591169081
ONEWEB-0616             
1 55157U 23004T   26192.89821574  .00000044  00000+0  79474-4 0  9998
2 55157  87.9140   0.9516 0001590 123.4789 236.6495 13.17650728170951
ONEWEB-0617             
1 55158U 23004U   26192.55826995 -.00000037  00000+0 -14121-3 0  9995
2 55158  87.8883  16.2153 0001949  76.6901 283.4444 13.11419663169053
ONEWEB-0618             
1 55159U 23004V   26192.46007566  .00002685  00000+0  14856-3 0  9995
2 55159  86.9104 167.7784 0011627 189.0153 171.0880 15.13354529185938
ONEWEB-0619             
1 55160U 23004W   26192.47466232 -.00000019  00000+0 -82586-4 0  9994
2 55160  87.9134   1.0182 0001270  76.2795 283.8478 13.17650789170790
ONEWEB-0620             
1 55161U 23004X   26192.93466413 -.00000239  00000+0 -71002-3 0  9991
2 55161  87.8879  16.1479 0002106  90.4415 269.6955 13.11418746169078
ONEWEB-0621             
1 55162U 23004Y   26192.96180765  .00000583  00000+0  16096-2 0  9999
2 55162  87.8882  16.1339 0001762  81.3683 278.7645 13.11415877169058
ONEWEB-0622             
1 55163U 23004Z   26192.50911312  .00000424  00000+0  11601-2 0  9991
2 55163  87.8891  16.2273 0002289  73.2308 286.9071 13.11415157168982
ONEWEB-0623             
1 55164U 23004AA  26192.84928051 -.00000035  00000+0 -12241-3 0  9999
2 55164  87.9124   0.9714 0001748  64.6346 295.4966 13.17647432170832
ONEWEB-0624             
1 55165U 23004AB  26192.81039641  .00000206  00000+0  53285-3 0  9996
2 55165  87.8963 345.6847 0001793  90.3202 269.8132 13.12927924171301
ONEWEB-0625             
1 55166U 23004AC  26192.91508957  .00000054  00000+0  10669-3 0  9999
2 55166  87.9134   0.9546 0001651  94.6874 265.4446 13.17650994170837
ONEWEB-0626             
1 55167U 23004AD  26192.82904758  .00000066  00000+0  13800-3 0  9992
2 55167  87.9139   0.9712 0002140  98.5751 261.5624 13.17650223170828
ONEWEB-0627             
1 55168U 23004AE  26192.51347766  .00000120  00000+0  27675-3 0  9995
2 55168  87.9142   1.0357 0002047  84.2193 275.9172 13.17648631170780
ONEWEB-0628             
1 55169U 23004AF  26192.87716391  .00000471  00000+0  12751-2 0  9996
2 55169  87.8966 345.7437 0001629  74.5056 285.6252 13.12442911171276
ONEWEB-0629             
1 55170U 23004AG  26192.86869230  .00000054  00000+0  10650-3 0  9992
2 55170  87.9140   0.9599 0001541  88.0838 272.0470 13.17649854170836
ONEWEB-0631             
1 55171U 23004AH  26192.83722822  .00000015  00000+0  59214-5 0  9993
2 55171  87.9189 330.5343 0002300  89.9513 270.1883 13.18686647172924
ONEWEB-0709             
1 55172U 23004AJ  26192.54300875 -.00000411  00000+0 -11959-2 0  9995
2 55172  87.8877  16.2285 0002596 100.9306 259.2115 13.11417515169068
ONEWEB-0710             
1 55173U 23004AK  26192.88303161  .00000006  00000+0 -16669-4 0  9998
2 55173  87.9138   0.9521 0001915  87.3274 272.8076 13.17648002170836
ONEWEB-0711             
1 55174U 23004AL  26192.97197800  .00000384  00000+0  10464-2 0  9993
2 55174  87.8850  16.1301 0001945  70.9065 289.2273 13.11414830169081
ONEWEB-0713             
1 55175U 23004AM  26192.91432381 -.00000413  00000+0 -12004-2 0  9991
2 55175  87.8882  16.1453 0001920  74.8404 285.2936 13.11415050169063
ONEWEB-0715             
1 55176U 23004AN  26192.52775369 -.00000299  00000+0 -87812-3 0  9997
2 55176  87.8879  16.2214 0002516  93.4768 266.6648 13.11414671169058
ONEWEB-0716             
1 55177U 23004AP  26192.49659925  .00000039  00000+0  66190-4 0  9990
2 55177  87.9133   1.0308 0001507  96.7838 263.3465 13.17648208170786
ONEWEB-0717             
1 55178U 23004AQ  26192.85940890  .00000064  00000+0  13060-3 0  9990
2 55178  87.9158   0.9498 0002195  78.1137 282.0241 13.17650285170881
ONEWEB-0719             
1 55179U 23004AR  26192.86952858  .00000008  00000+0 -11307-4 0  9991
2 55179  87.9149   0.9282 0001600  92.8920 267.2395 13.17651061170839
ONEWEB-0530             
1 55796U 23029A   26193.16542353  .00000067  00000+0  13348-3 0  9992
2 55796  87.9175 269.4899 0001869  85.9813 274.1534 13.20772885164444
