OBJECT_NAME,OBJECT_ID,EPOCH,MEAN_MOTION,ECCENTRICITY,INCLINATION,RA_OF_ASC_NODE,ARG_OF_PERICENTER,MEAN_ANOMALY,EPHEMERIS_TYPE,CLASSIFICATION_TYPE,NORAD_CAT_ID,ELEMENT_SET_NO,REV_AT_EPOCH,BSTAR,MEAN_MOTION_DOT,MEAN_MOTION_DDOT
ONEWEB-0572,2023-004M,2026-07-11T12:21:50.736384,13.17650860,.00020059,87.9138,1.0251,92.2805,267.8556,0,U,55151,999,17068,.26415019E-4,.23E-6,0
ONEWEB-0573,2023-004N,2026-07-11T20:25:00.495552,13.18687484,.0002796,87.9186,330.5629,98.3824,261.7625,0,U,55152,999,17294,-.73626674E-4,-.16E-6,0
ONEWEB-0588,2023-004P,2026-07-11T20:15:19.224000,13.18686445,.00022381,87.9184,330.5641,86.0608,274.0780,0,U,55153,999,17294,-.10347985E-3,-.28E-6,0
ONEWEB-0598,2023-004Q,2026-07-11T11:58:28.481664,13.11417058,.00024792,87.8870,16.2267,101.6408,258.4998,0,U,55154,999,16908,.17499002E-2,.633E-5,0
ONEWEB-0599,2023-004R,2026-07-11T20:32:40.959168,13.17650337,.00017656,87.9135,0.9554,97.8839,262.2493,0,U,55155,999,17073,-.11811211E-3,-.33E-6,0
ONEWEB-0614,2023-004S,2026-07-11T22:50:20.918400,13.11417591,.00018121,87.8878,16.1452,81.8889,278.2444,0,U,55156,999,16908,.1134876E-2,.415E-5,0
ONEWEB-0616,2023-004T,2026-07-11T21:33:25.839936,13.17650728,.000159,87.9140,0.9516,123.4789,236.6495,0,U,55157,999,17095,.79474E-4,.44E-6,0
ONEWEB-0617,2023-004U,2026-07-11T13:23:54.523680,13.11419663,.00019498,87.8883,16.2153,76.6901,283.4444,0,U,55158,999,16905,-.14120543E-3,-.37E-6,0
ONEWEB-0618,2023-004V,2026-07-11T11:02:30.537024,15.13354529,.00116279,86.9104,167.7784,189.0153,171.0880,0,U,55159,999,18593,.14856376E-3,.2685E-4,0
ONEWEB-0619,2023-004W,2026-07-11T11:23:30.824448,13.17650789,.00012702,87.9134,1.0182,76.2795,283.8478,0,U,55160,999,17079,-.82585569E-4,-.19E-6,0
ONEWEB-0620,2023-004X,2026-07-11T22:25:54.980832,13.11418746,.0002106,87.8879,16.1479,90.4415,269.6955,0,U,55161,999,16907,-.71002E-3,-.239E-5,0
ONEWEB-0621,2023-004Y,2026-07-11T23:05:00.181824,13.11415877,.00017619,87.8882,16.1339,81.3683,278.7645,0,U,55162,999,16905,.16095816E-2,.583E-5,0
ONEWEB-0622,2023-004Z,2026-07-11T12:13:07.373568,13.11415157,.00022899,87.8891,16.2273,73.2308,286.9071,0,U,55163,999,16898,.11600976E-2,.424E-5,0
ONEWEB-0623,2023-004AA,2026-07-11T20:22:57.836064,13.17647432,.00017486,87.9124,0.9714,64.6346,295.4966,0,U,55164,999,17083,-.12240972E-3,-.35E-6,0
ONEWEB-0624,2023-004AB,2026-07-11T19:26:58.249824,13.12927924,.0001793,87.8963,345.6847,90.3202,269.8132,0,U,55165,999,17130,.53284879E-3,.206E-5,0
ONEWEB-0625,2023-004AC,2026-07-11T21:57:43.738848,13.17650994,.0001651,87.9134,0.9546,94.6874,265.4446,0,U,55166,999,17083,.10669E-3,.54E-6,0
ONEWEB-0626,2023-004AD,2026-07-11T19:53:49.710912,13.17650223,.00021406,87.9139,0.9712,98.5751,261.5624,0,U,55167,999,17082,.13800311E-3,.66E-6,0
ONEWEB-0627,2023-004AE,2026-07-11T12:19:24.469824,13.17648631,.00020479,87.9142,1.0357,84.2193,275.9172,0,U,55168,999,17078,.27675397E-3,.12E-5,0
ONEWEB-0628,2023-004AF,2026-07-11T21:03:06.961824,13.12442911,.0001629,87.8966,345.7437,74.5056,285.6252,0,U,55169,999,17127,.12751E-2,.471E-5,0
ONEWEB-0629,2023-004AG,2026-07-11T20:50:55.014720,13.17649854,.00015416,87.9140,0.9599,88.0838,272.0470,0,U,55170,999,17083,.1064996E-3,.54E-6,0
ONEWEB-0631,2023-004AH,2026-07-11T20:05:36.518208,13.18686647,.00023001,87.9189,330.5343,89.9513,270.1883,0,U,55171,999,17292,.5921412E-5,.15E-6,0
ONEWEB-0709,2023-004AJ,2026-07-11T13:01:55.956000,13.11417515,.00025968,87.8877,16.2285,100.9306,259.2115,0,U,55172,999,16906,-.11958537E-2,-.411E-5,0
ONEWEB-0710,2023-004AK,2026-07-11T21:11:33.931104,13.17648002,.0001915,87.9138,0.9521,87.3274,272.8076,0,U,55173,999,17083,-.16669E-4,.6E-7,0
ONEWEB-0711,2023-004AL,2026-07-11T23:19:38.899200,13.11414830,.00019447,87.8850,16.1301,70.9065,289.2273,0,U,55174,999,16908,.10464142E-2,.384E-5,0
ONEWEB-0713,2023-004AM,2026-07-11T21:56:37.577184,13.11415050,.000192,87.8882,16.1453,74.8404,285.2936,0,U,55175,999,16906,-.12004E-2,-.413E-5,0
ONEWEB-0715,2023-004AN,2026-07-11T12:39:57.918816,13.11414671,.00025161,87.8879,16.2214,93.4768,266.6648,0,U,55176,999,16905,-.87812424E-3,-.299E-5,0
ONEWEB-0716,2023-004AP,2026-07-11T11:55:06.175200,13.17648208,.00015076,87.9133,1.0308,96.7838,263.3465,0,U,55177,999,17078,.66190459E-4,.39E-6,0
ONEWEB-0717,2023-004AQ,2026-07-11T20:37:32.928960,13.17650285,.00021958,87.9158,0.9498,78.1137,282.0241,0,U,55178,999,17088,.13060308E-3,.64E-6,0
ONEWEB-0719,2023-004AR,2026-07-11T20:52:07.269312,13.17651061,.00016007,87.9149,0.9282,92.8920,267.2395,0,U,55179,999,17083,-.11307493E-4,.8E-7,0
ONEWEB-0530,2023-029A,2026-07-12T03:58:12.593856,13.20772885,.00018691,87.9175,269.4899,85.9813,274.1534,0,U,55796,999,16444,.13347636E-3,.67E-6,0
